IRIDIUM 33 DEB          
1 34896U 97051MY  17345.23826546  .00000520  00000-0  13108-3 0  9991
2 34896  86.3359 167.7856 0035784 322.7929 159.7969 14.48878165458787
